{"type": "FeatureCollection", "features": [ {"type": "Feature", "properties": {"norad_id": 30703, "name": "FENGYUN 1C DEB", "group": "fengyun-1c-debris", "lat": -72.12825573795794, "lon": 129.243859609192, "alt_km": 753.848457599046, "timestamp": "2025-12-19T22:41:52.671494+00:00", "meta": {"OBJECT_NAME": "FENGYUN 1C DEB", "OBJECT_ID": "1999-025ARM", "EPOCH": "2025-12-18T05:12:05.281920", "MEAN_MOTION": 14.19351912, "ECCENTRICITY": 0.01173359, "INCLINATION": 99.142, "RA_OF_ASC_NODE": 337.4201, "ARG_OF_PERICENTER": 276.489, "MEAN_ANOMALY": 148.6187, "EPHEMERIS_TYPE": 0, "CLASSIFICATION_TYPE": "U", "NORAD_CAT_ID": 30703, "ELEMENT_SET_NO": 999, "REV_AT_EPOCH": 96618, "BSTAR": 0.00086399706, "MEAN_MOTION_DOT": 1.896e-05, "MEAN_MOTION_DDOT": 0}, "tle": {"line1": "1 30703U 99025ARM 25352.21672780  .00001896  00000+0  86400-3 0  9992", "line2": "2 30703  99.1420 337.4201 0117335 276.4890 148.6187 14.19351912966187"}}, "geometry": {"type": "Point", "coordinates": [129.243859609192, -72.12825573795794]}}, {"type": "Feature", "properties": {"norad_id": 30704, "name": "FENGYUN 1C DEB", "group": "fengyun-1c-debris", "lat": 68.19016463121466, "lon": -164.53079740420807, "alt_km": 828.4321101683563, "timestamp": "2025-12-19T22:41:52.671504+00:00", "meta": {"OBJECT_NAME": "FENGYUN 1C DEB", "OBJECT_ID": "1999-025ARN", "EPOCH": "2025-12-19T00:13:14.246688", "MEAN_MOTION": 14.0205721, "ECCENTRICITY": 0.00818252, "INCLINATION": 98.8729, "RA_OF_ASC_NODE": 351.5811, "ARG_OF_PERICENTER": 82.4991, "MEAN_ANOMALY": 342.4262, "EPHEMERIS_TYPE": 0, "CLASSIFICATION_TYPE": "U", "NORAD_CAT_ID": 30704, "ELEMENT_SET_NO": 999, "REV_AT_EPOCH": 96199, "BSTAR": 0.00040262562, "MEAN_MOTION_DOT": 5.91e-06, "MEAN_MOTION_DDOT": 0}, "tle": {"line1": "1 30704U 99025ARN 25353.00919267  .00000591  00000+0  40263-3 0  9993", "line2": "2 30704  98.8729 351.5811 0081825  82.4991 342.4262 14.02057210961999"}}, "geometry": {"type": "Point", "coordinates": [-164.53079740420807, 68.19016463121466]}}, {"type": "Feature", "properties": {"norad_id": 30705, "name": "FENGYUN 1C DEB", "group": "fengyun-1c-debris", "lat": -7.149463511968657, "lon": 101.74394008382238, "alt_km": 953.7706435071896, "timestamp": "2025-12-19T22:41:52.671514+00:00", "meta": {"OBJECT_NAME": "FENGYUN 1C DEB", "OBJECT_ID": "1999-025ARP", "EPOCH": "2025-12-19T05:30:47.998080", "MEAN_MOTION": 13.8135433, "ECCENTRICITY": 0.0200704, "INCLINATION": 102.1805, "RA_OF_ASC_NODE": 99.2701, "ARG_OF_PERICENTER": 266.8232, "MEAN_ANOMALY": 124.6661, "EPHEMERIS_TYPE": 0, "CLASSIFICATION_TYPE": "U", "NORAD_CAT_ID": 30705, "ELEMENT_SET_NO": 999, "REV_AT_EPOCH": 94099, "BSTAR": 0.0018807, "MEAN_MOTION_DOT": 2.261e-05, "MEAN_MOTION_DDOT": 0}, "tle": {"line1": "1 30705U 99025ARP 25353.22972220  .00002261  00000+0  18807-2 0  9990", "line2": "2 30705 102.1805  99.2701 0200704 266.8232 124.6661 13.81354330940992"}}, "geometry": {"type": "Point", "coordinates": [101.74394008382238, -7.149463511968657]}}, {"type": "Feature", "properties": {"norad_id": 30706, "name": "FENGYUN 1C DEB", "group": "fengyun-1c-debris", "lat": 14.449970531449695, "lon": -113.55162201259446, "alt_km": 805.4006420190972, "timestamp": "2025-12-19T22:41:52.671524+00:00", "meta": {"OBJECT_NAME": "FENGYUN 1C DEB", "OBJECT_ID": "1999-025ARQ", "EPOCH": "2025-12-19T15:53:44.562048", "MEAN_MOTION": 14.26450334, "ECCENTRICITY": 0.0026921, "INCLINATION": 99.0659, "RA_OF_ASC_NODE": 248.5131, "ARG_OF_PERICENTER": 108.4704, "MEAN_ANOMALY": 251.9404, "EPHEMERIS_TYPE": 0, "CLASSIFICATION_TYPE": "U", "NORAD_CAT_ID": 30706, "ELEMENT_SET_NO": 999, "REV_AT_EPOCH": 97726, "BSTAR": 0.00061345, "MEAN_MOTION_DOT": 1.435e-05, "MEAN_MOTION_DDOT": 0}, "tle": {"line1": "1 30706U 99025ARQ 25353.66232132  .00001435  00000+0  61345-3 0  9998", "line2": "2 30706  99.0659 248.5131 0026921 108.4704 251.9404 14.26450334977262"}}, "geometry": {"type": "Point", "coordinates": [-113.55162201259446, 14.449970531449695]}}, {"type": "Feature", "properties": {"norad_id": 30707, "name": "FENGYUN 1C DEB", "group": "fengyun-1c-debris", "lat": -70.93882757412428, "lon": -159.83044411691685, "alt_km": 827.8141151423742, "timestamp": "2025-12-19T22:41:52.671534+00:00", "meta": {"OBJECT_NAME": "FENGYUN 1C DEB", "OBJECT_ID": "1999-025ARR", "EPOCH": "2025-12-19T15:29:47.132160", "MEAN_MOTION": 14.26730285, "ECCENTRICITY": 0.0027314, "INCLINATION": 99.4124, "RA_OF_ASC_NODE": 48.5376, "ARG_OF_PERICENTER": 50.0721, "MEAN_ANOMALY": 103.0278, "EPHEMERIS_TYPE": 0, "CLASSIFICATION_TYPE": "U", "NORAD_CAT_ID": 30707, "ELEMENT_SET_NO": 999, "REV_AT_EPOCH": 96901, "BSTAR": 0.0010529, "MEAN_MOTION_DOT": 2.509e-05, "MEAN_MOTION_DDOT": 0}, "tle": {"line1": "1 30707U 99025ARR 25353.64568440  .00002509  00000+0  10529-2 0  9991", "line2": "2 30707  99.4124  48.5376 0027314  50.0721 103.0278 14.26730285969017"}}, "geometry": {"type": "Point", "coordinates": [-159.83044411691685, -70.93882757412428]}}, {"type": "Feature", "properties": {"norad_id": 30708, "name": "FENGYUN 1C DEB", "group": "fengyun-1c-debris", "lat": -59.06239712947412, "lon": 22.144650660844125, "alt_km": 862.5537473142213, "timestamp": "2025-12-19T22:41:52.671545+00:00", "meta": {"OBJECT_NAME": "FENGYUN 1C DEB", "OBJECT_ID": "1999-025ARS", "EPOCH": "2025-12-19T11:50:44.841120", "MEAN_MOTION": 14.12182813, "ECCENTRICITY": 0.0008385, "INCLINATION": 98.6899, "RA_OF_ASC_NODE": 6.9233, "ARG_OF_PERICENTER": 175.2123, "MEAN_ANOMALY": 347.0788, "EPHEMERIS_TYPE": 0, "CLASSIFICATION_TYPE": "U", "NORAD_CAT_ID": 30708, "ELEMENT_SET_NO": 999, "REV_AT_EPOCH": 96931, "BSTAR": 0.00013587, "MEAN_MOTION_DOT": 2.07e-06, "MEAN_MOTION_DDOT": 0}, "tle": {"line1": "1 30708U 99025ARS 25353.49357455  .00000207  00000+0  13587-3 0  9998", "line2": "2 30708  98.6899   6.9233 0008385 175.2123 347.0788 14.12182813969313"}}, "geometry": {"type": "Point", "coordinates": [22.144650660844125, -59.06239712947412]}}, {"type": "Feature", "properties": {"norad_id": 30709, "name": "FENGYUN 1C DEB", "group": "fengyun-1c-debris", "lat": 71.96591979007003, "lon": -178.23959616387802, "alt_km": 874.4239841626713, "timestamp": "2025-12-19T22:41:52.671555+00:00", "meta": {"OBJECT_NAME": "FENGYUN 1C DEB", "OBJECT_ID": "1999-025ART", "EPOCH": "2025-12-18T14:00:31.029408", "MEAN_MOTION": 14.17535884, "ECCENTRICITY": 0.00820061, "INCLINATION": 99.1439, "RA_OF_ASC_NODE": 330.7095, "ARG_OF_PERICENTER": 253.5213, "MEAN_ANOMALY": 105.6937, "EPHEMERIS_TYPE": 0, "CLASSIFICATION_TYPE": "U", "NORAD_CAT_ID": 30709, "ELEMENT_SET_NO": 999, "REV_AT_EPOCH": 96079, "BSTAR": 0.0019274386, "MEAN_MOTION_DOT": 3.998e-05, "MEAN_MOTION_DDOT": 0}, "tle": {"line1": "1 30709U 99025ART 25352.58369247  .00003998  00000+0  19274-2 0  9998", "line2": "2 30709  99.1439 330.7095 0082006 253.5213 105.6937 14.17535884960798"}}, "geometry": {"type": "Point", "coordinates": [-178.23959616387802, 71.96591979007003]}}, {"type": "Feature", "properties": {"norad_id": 30710, "name": "FENGYUN 1C DEB", "group": "fengyun-1c-debris", "lat": 73.73961552326908, "lon": 116.76383869019823, "alt_km": 769.8179035265457, "timestamp": "2025-12-19T22:41:52.671566+00:00", "meta": {"OBJECT_NAME": "FENGYUN 1C DEB", "OBJECT_ID": "1999-025ARU", "EPOCH": "2025-12-19T11:02:00.151872", "MEAN_MOTION": 13.94198535, "ECCENTRICITY": 0.0224534, "INCLINATION": 102.7471, "RA_OF_ASC_NODE": 245.1907, "ARG_OF_PERICENTER": 67.296, "MEAN_ANOMALY": 113.1689, "EPHEMERIS_TYPE": 0, "CLASSIFICATION_TYPE": "U", "NORAD_CAT_ID": 30710, "ELEMENT_SET_NO": 999, "REV_AT_EPOCH": 94882, "BSTAR": 0.0021978, "MEAN_MOTION_DOT": 3.525e-05, "MEAN_MOTION_DDOT": 0}, "tle": {"line1": "1 30710U 99025ARU 25353.45972398  .00003525  00000+0  21978-2 0  9994", "line2": "2 30710 102.7471 245.1907 0224534  67.2960 113.1689 13.94198535948821"}}, "geometry": {"type": "Point", "coordinates": [116.76383869019823, 73.73961552326908]}}, {"type": "Feature", "properties": {"norad_id": 30714, "name": "FENGYUN 1C DEB", "group": "fengyun-1c-debris", "lat": -40.52219015100595, "lon": 49.90326543655156, "alt_km": 862.0540228881773, "timestamp": "2025-12-19T22:41:52.671576+00:00", "meta": {"OBJECT_NAME": "FENGYUN 1C DEB", "OBJECT_ID": "1999-025ARY", "EPOCH": "2025-12-19T02:29:46.053600", "MEAN_MOTION": 14.03300254, "ECCENTRICITY": 0.00667379, "INCLINATION": 98.8359, "RA_OF_ASC_NODE": 41.4455, "ARG_OF_PERICENTER": 264.588, "MEAN_ANOMALY": 123.7164, "EPHEMERIS_TYPE": 0, "CLASSIFICATION_TYPE": "U", "NORAD_CAT_ID": 30714, "ELEMENT_SET_NO": 999, "REV_AT_EPOCH": 96082, "BSTAR": 0.00032338395, "MEAN_MOTION_DOT": 4.71e-06, "MEAN_MOTION_DDOT": 0}, "tle": {"line1": "1 30714U 99025ARY 25353.10400525  .00000471  00000+0  32338-3 0  9998", "line2": "2 30714  98.8359  41.4455 0066737 264.5880 123.7164 14.03300254960825"}}, "geometry": {"type": "Point", "coordinates": [49.90326543655156, -40.52219015100595]}}, {"type": "Feature", "properties": {"norad_id": 30715, "name": "FENGYUN 1C DEB", "group": "fengyun-1c-debris", "lat": 61.193700168103454, "lon": -100.14692082595514, "alt_km": 795.1361001840833, "timestamp": "2025-12-19T22:41:52.671586+00:00", "meta": {"OBJECT_NAME": "FENGYUN 1C DEB", "OBJECT_ID": "1999-025ARZ", "EPOCH": "2025-12-19T15:21:19.328256", "MEAN_MOTION": 14.14739244, "ECCENTRICITY": 0.0067669, "INCLINATION": 98.9767, "RA_OF_ASC_NODE": 62.8402, "ARG_OF_PERICENTER": 149.1122, "MEAN_ANOMALY": 211.4058, "EPHEMERIS_TYPE": 0, "CLASSIFICATION_TYPE": "U", "NORAD_CAT_ID": 30715, "ELEMENT_SET_NO": 999, "REV_AT_EPOCH": 96279, "BSTAR": 0.0013729, "MEAN_MOTION_DOT": 2.659e-05, "MEAN_MOTION_DDOT": 0}, "tle": {"line1": "1 30715U 99025ARZ 25353.63980704  .00002659  00000+0  13729-2 0  9991", "line2": "2 30715  98.9767  62.8402 0067669 149.1122 211.4058 14.14739244962793"}}, "geometry": {"type": "Point", "coordinates": [-100.14692082595514, 61.193700168103454]}}]}